{"type":"FeatureCollection","features":[{"type":"Feature","properties":{"district":"Bidar"},"geometry":{"type":"Polygon","coordinates":[[[77.443,17.584],[77.379,17.595],[77.34,17.588],[77.298,17.606],[77.273,17.627],[77.189,17.616],[77.126,17.687],[77.085,17.659],[77.035,17.67],[77.018,17.678],[76.977,17.68],[76.94,17.609],[76.918,17.624],[76.908,17.635],[76.793,17.653],[76.77,17.646],[76.733,17.666],[76.699,17.643],[76.709,17.658],[76.696,17.662],[76.694,17.663],[76.691,17.681],[76.696,17.709],[76.728,17.738],[76.762,17.787],[76.768,17.852],[76.74,17.9],[76.775,17.878],[76.805,17.871],[76.831,17.886],[76.884,17.894],[76.919,17.916],[76.914,18.035],[76.945,18.083],[76.92,18.118],[76.924,18.146],[76.942,18.156],[76.991,18.19],[77.023,18.159],[77.033,18.182],[77.064,18.151],[77.111,18.156],[77.117,18.17],[77.098,18.197],[77.149,18.239],[77.175,18.285],[77.199,18.316],[77.229,18.348],[77.226,18.365],[77.246,18.372],[77.242,18.413],[77.317,18.442],[77.345,18.433],[77.366,18.45],[77.412,18.393],[77.395,18.368],[77.359,18.318],[77.366,18.307],[77.438,18.31],[77.445,18.28],[77.462,18.263],[77.465,18.263],[77.493,18.267],[77.513,18.309],[77.562,18.285],[77.605,18.282],[77.6,18.276],[77.586,18.22],[77.581,18.162],[77.599,18.094],[77.598,18.093],[77.563,18.073],[77.554,18.036],[77.589,18.012],[77.628,17.997],[77.656,17.969],[77.637,17.952],[77.625,17.96],[77.619,17.94],[77.586,17.908],[77.577,17.875],[77.528,17.828],[77.506,17.786],[77.555,17.764],[77.569,17.749],[77.522,17.726],[77.448,17.651],[77.455,17.633],[77.444,17.584],[77.443,17.584]]]}},{"type":"Feature","properties":{"district":"Kalaburagi"},"geometry":{"type":"Polygon","coordinates":[[[76.686,17.682],[76.694,17.662],[76.711,17.661],[76.7,17.645],[76.714,17.639],[76.774,17.667],[76.778,17.636],[76.899,17.645],[76.929,17.638],[76.921,17.611],[76.987,17.658],[76.991,17.696],[77.034,17.681],[77.058,17.673],[77.124,17.686],[77.15,17.632],[77.198,17.632],[77.274,17.627],[77.311,17.595],[77.36,17.6],[77.379,17.584],[77.453,17.581],[77.466,17.577],[77.494,17.568],[77.507,17.542],[77.538,17.575],[77.594,17.564],[77.674,17.515],[77.689,17.511],[77.652,17.483],[77.645,17.478],[77.614,17.446],[77.576,17.431],[77.513,17.431],[77.538,17.406],[77.529,17.373],[77.527,17.37],[77.474,17.361],[77.453,17.374],[77.438,17.292],[77.426,17.256],[77.408,17.241],[77.404,17.21],[77.372,17.195],[77.407,17.125],[77.463,17.094],[77.497,17.043],[77.48,16.996],[77.481,16.97],[77.466,16.954],[77.454,16.914],[77.425,16.885],[77.402,16.883],[77.377,16.895],[77.342,16.934],[77.312,16.927],[77.263,16.928],[77.211,16.945],[77.184,16.942],[77.16,16.916],[77.095,16.906],[77.072,16.94],[77.041,16.923],[77.018,16.899],[77.042,16.87],[76.98,16.861],[76.995,16.837],[76.983,16.81],[76.911,16.816],[76.921,16.87],[76.902,16.893],[76.841,16.867],[76.813,16.858],[76.789,16.837],[76.755,16.82],[76.745,16.752],[76.729,16.754],[76.709,16.781],[76.68,16.785],[76.661,16.767],[76.659,16.725],[76.636,16.746],[76.624,16.766],[76.547,16.748],[76.504,16.741],[76.481,16.712],[76.461,16.711],[76.449,16.721],[76.423,16.717],[76.44,16.742],[76.371,16.769],[76.41,16.799],[76.352,16.82],[76.429,16.851],[76.471,16.839],[76.438,16.868],[76.434,16.898],[76.459,16.928],[76.428,16.927],[76.4,16.977],[76.441,16.997],[76.429,17.1],[76.388,17.073],[76.362,17.116],[76.395,17.143],[76.369,17.167],[76.333,17.171],[76.264,17.151],[76.246,17.151],[76.242,17.152],[76.188,17.186],[76.128,17.245],[76.089,17.258],[76.099,17.29],[76.066,17.311],[76.072,17.334],[76.075,17.336],[76.082,17.336],[76.119,17.371],[76.165,17.303],[76.183,17.319],[76.23,17.365],[76.242,17.379],[76.272,17.36],[76.318,17.332],[76.345,17.355],[76.383,17.315],[76.412,17.351],[76.364,17.378],[76.333,17.434],[76.375,17.49],[76.347,17.513],[76.363,17.537],[76.331,17.596],[76.429,17.643],[76.445,17.641],[76.453,17.656],[76.487,17.715],[76.523,17.76],[76.564,17.751],[76.582,17.706],[76.614,17.77],[76.632,17.755],[76.656,17.718],[76.685,17.686],[76.686,17.682]]]}},{"type":"Feature","properties":{"district":"Belagavi"},"geometry":{"type":"Polygon","coordinates":[[[75.342,16.956],[75.395,16.863],[75.384,16.763],[75.363,16.714],[75.276,16.703],[75.268,16.641],[75.259,16.607],[75.17,16.599],[75.161,16.54],[75.156,16.531],[75.115,16.506],[75.071,16.568],[75.008,16.538],[74.987,16.466],[75.017,16.459],[75.028,16.434],[75.073,16.405],[75.035,16.387],[75.076,16.332],[75.149,16.315],[75.148,16.283],[75.232,16.21],[75.285,16.176],[75.276,16.12],[75.354,16.129],[75.405,16.114],[75.416,16.116],[75.428,16.093],[75.445,16.069],[75.419,16.053],[75.426,16.009],[75.432,15.975],[75.425,15.921],[75.438,15.894],[75.452,15.883],[75.458,15.819],[75.414,15.785],[75.375,15.845],[75.341,15.805],[75.325,15.811],[75.306,15.766],[75.318,15.745],[75.3,15.728],[75.294,15.741],[75.274,15.718],[75.289,15.691],[75.274,15.649],[75.236,15.679],[75.203,15.649],[75.092,15.608],[75.06,15.682],[75.047,15.671],[75.019,15.644],[74.965,15.627],[74.879,15.618],[74.841,15.575],[74.814,15.505],[74.778,15.459],[74.727,15.489],[74.73,15.431],[74.741,15.411],[74.69,15.398],[74.614,15.359],[74.483,15.396],[74.457,15.403],[74.422,15.464],[74.375,15.481],[74.278,15.523],[74.262,15.565],[74.264,15.616],[74.252,15.654],[74.205,15.651],[74.187,15.668],[74.181,15.682],[74.164,15.654],[74.126,15.653],[74.118,15.652],[74.088,15.67],[74.126,15.681],[74.122,15.721],[74.201,15.759],[74.221,15.786],[74.234,15.787],[74.228,15.761],[74.268,15.755],[74.308,15.749],[74.346,15.765],[74.37,15.794],[74.362,15.816],[74.383,15.849],[74.363,15.875],[74.367,15.89],[74.388,15.854],[74.387,15.905],[74.463,16.039],[74.43,16.059],[74.378,16.055],[74.372,16.078],[74.39,16.09],[74.483,16.092],[74.489,16.111],[74.494,16.187],[74.505,16.196],[74.496,16.215],[74.494,16.235],[74.469,16.24],[74.418,16.258],[74.383,16.277],[74.359,16.291],[74.35,16.275],[74.321,16.285],[74.325,16.314],[74.317,16.326],[74.315,16.34],[74.317,16.381],[74.336,16.394],[74.364,16.405],[74.333,16.455],[74.291,16.505],[74.275,16.486],[74.247,16.497],[74.264,16.54],[74.271,16.547],[74.292,16.534],[74.302,16.529],[74.315,16.505],[74.34,16.548],[74.358,16.538],[74.397,16.583],[74.435,16.601],[74.455,16.647],[74.47,16.662],[74.545,16.636],[74.567,16.585],[74.56,16.561],[74.603,16.567],[74.631,16.584],[74.64,16.61],[74.648,16.61],[74.688,16.618],[74.665,16.666],[74.681,16.686],[74.689,16.713],[74.696,16.716],[74.772,16.751],[74.845,16.762],[74.866,16.763],[74.92,16.773],[74.961,16.881],[74.956,16.905],[74.931,16.923],[74.923,16.939],[74.934,16.943],[74.965,16.927],[74.99,16.952],[75.027,16.944],[75.089,16.951],[75.117,16.913],[75.137,16.874],[75.189,16.875],[75.214,16.842],[75.238,16.868],[75.282,16.88],[75.28,16.923],[75.342,16.956],[75.342,16.956]]]}},{"type":"Feature","properties":{"district":"Yadgir"},"geometry":{"type":"Polygon","coordinates":[[[76.461,16.711],[76.481,16.712],[76.504,16.741],[76.547,16.748],[76.624,16.766],[76.636,16.746],[76.659,16.725],[76.661,16.767],[76.68,16.785],[76.709,16.781],[76.729,16.754],[76.745,16.752],[76.755,16.82],[76.789,16.837],[76.813,16.858],[76.841,16.867],[76.902,16.893],[76.921,16.87],[76.911,16.816],[76.983,16.81],[76.995,16.837],[76.98,16.861],[77.042,16.87],[77.018,16.899],[77.041,16.923],[77.072,16.94],[77.095,16.906],[77.16,16.916],[77.184,16.942],[77.211,16.945],[77.263,16.928],[77.312,16.927],[77.342,16.934],[77.377,16.895],[77.402,16.883],[77.425,16.885],[77.46,16.885],[77.457,16.83],[77.467,16.78],[77.443,16.762],[77.439,16.712],[77.474,16.717],[77.464,16.676],[77.429,16.651],[77.462,16.654],[77.454,16.617],[77.462,16.585],[77.422,16.569],[77.393,16.57],[77.419,16.549],[77.417,16.517],[77.379,16.514],[77.33,16.486],[77.294,16.477],[77.25,16.461],[77.288,16.409],[77.265,16.404],[77.243,16.418],[77.174,16.433],[77.092,16.493],[77.013,16.5],[77.01,16.545],[76.999,16.553],[76.983,16.559],[76.969,16.552],[76.971,16.504],[76.871,16.489],[76.865,16.457],[76.785,16.418],[76.744,16.409],[76.48,16.293],[76.47,16.286],[76.332,16.195],[76.348,16.278],[76.303,16.319],[76.314,16.345],[76.311,16.397],[76.333,16.393],[76.358,16.422],[76.39,16.438],[76.434,16.519],[76.425,16.695],[76.462,16.708],[76.461,16.711]]]}},{"type":"Feature","properties":{"district":"Bagalkote"},"geometry":{"type":"Polygon","coordinates":[[[75.452,15.886],[75.442,15.918],[75.44,15.967],[75.438,16.003],[75.417,16.046],[75.445,16.053],[75.431,16.069],[75.439,16.116],[75.412,16.131],[75.355,16.115],[75.328,16.115],[75.292,16.173],[75.286,16.201],[75.234,16.259],[75.159,16.321],[75.13,16.331],[75.043,16.318],[75.04,16.398],[75.078,16.438],[75.018,16.44],[74.988,16.454],[74.989,16.501],[75.067,16.539],[75.114,16.509],[75.141,16.522],[75.162,16.534],[75.157,16.584],[75.221,16.617],[75.259,16.608],[75.266,16.692],[75.289,16.715],[75.366,16.76],[75.405,16.766],[75.492,16.744],[75.438,16.698],[75.494,16.593],[75.488,16.555],[75.456,16.507],[75.435,16.434],[75.446,16.416],[75.449,16.413],[75.488,16.419],[75.499,16.431],[75.535,16.466],[75.557,16.425],[75.568,16.413],[75.6,16.447],[75.721,16.391],[75.956,16.297],[76.065,16.262],[76.058,16.228],[76.067,16.209],[76.139,16.181],[76.194,16.178],[76.238,16.162],[76.234,16.131],[76.256,16.097],[76.332,16.092],[76.269,16.087],[76.258,16.086],[76.303,16.073],[76.298,15.999],[76.328,15.934],[76.285,15.929],[76.282,15.903],[76.257,15.923],[76.227,15.941],[76.2,15.935],[76.145,15.895],[76.101,15.901],[76.085,15.996],[76.056,16.009],[75.974,15.986],[75.974,15.862],[75.914,15.912],[75.892,15.916],[75.788,15.925],[75.81,15.894],[75.835,15.882],[75.849,15.872],[75.8,15.858],[75.78,15.849],[75.745,15.813],[75.737,15.813],[75.687,15.83],[75.677,15.822],[75.672,15.836],[75.643,15.841],[75.618,15.836],[75.587,15.833],[75.566,15.838],[75.552,15.825],[75.53,15.835],[75.52,15.858],[75.498,15.872],[75.452,15.886],[75.452,15.886]]]}},{"type":"Feature","properties":{"district":"Raichur"},"geometry":{"type":"Polygon","coordinates":[[[76.332,16.195],[76.47,16.286],[76.48,16.293],[76.744,16.409],[76.785,16.418],[76.865,16.457],[76.871,16.489],[76.971,16.504],[76.969,16.552],[76.983,16.559],[76.999,16.553],[77.01,16.545],[77.013,16.5],[77.092,16.493],[77.174,16.433],[77.243,16.418],[77.265,16.404],[77.288,16.409],[77.297,16.407],[77.363,16.384],[77.405,16.371],[77.426,16.371],[77.507,16.38],[77.564,16.348],[77.594,16.342],[77.596,16.302],[77.563,16.302],[77.537,16.267],[77.505,16.276],[77.492,16.229],[77.501,16.222],[77.49,16.12],[77.501,16.106],[77.507,16.08],[77.514,16.008],[77.43,15.949],[77.249,15.965],[77.152,15.949],[77.076,15.912],[77.072,15.909],[77.025,15.837],[77.025,15.837],[76.943,15.762],[76.889,15.685],[76.834,15.628],[76.811,15.548],[76.75,15.588],[76.68,15.613],[76.693,15.625],[76.67,15.639],[76.599,15.674],[76.532,15.699],[76.492,15.707],[76.44,15.784],[76.452,15.846],[76.427,15.89],[76.373,15.918],[76.359,15.882],[76.338,15.872],[76.316,15.905],[76.29,15.893],[76.285,15.903],[76.312,15.923],[76.298,15.989],[76.312,16.0],[76.259,16.074],[76.257,16.088],[76.328,16.078],[76.268,16.11],[76.246,16.128],[76.237,16.161],[76.238,16.165],[76.28,16.153],[76.331,16.194],[76.332,16.195]]]}},{"type":"Feature","properties":{"district":"Koppal"},"geometry":{"type":"Polygon","coordinates":[[[75.847,15.839],[75.828,15.866],[75.827,15.9],[75.774,15.903],[75.877,15.932],[75.902,15.924],[75.928,15.876],[75.974,15.969],[75.99,16.005],[76.079,16.011],[76.058,15.907],[76.117,15.886],[76.161,15.921],[76.2,15.944],[76.23,15.923],[76.262,15.907],[76.29,15.893],[76.316,15.905],[76.338,15.872],[76.359,15.882],[76.373,15.918],[76.427,15.89],[76.452,15.846],[76.44,15.784],[76.492,15.707],[76.532,15.699],[76.599,15.674],[76.67,15.639],[76.693,15.625],[76.68,15.613],[76.75,15.588],[76.811,15.548],[76.81,15.512],[76.709,15.489],[76.612,15.443],[76.555,15.397],[76.477,15.349],[76.364,15.328],[76.303,15.256],[76.257,15.206],[76.219,15.197],[76.188,15.235],[76.156,15.196],[76.094,15.163],[76.047,15.149],[75.978,15.153],[75.952,15.138],[75.925,15.183],[75.912,15.24],[75.899,15.277],[75.887,15.353],[75.904,15.403],[75.859,15.444],[75.824,15.452],[75.812,15.481],[75.814,15.489],[75.819,15.508],[75.867,15.596],[75.898,15.625],[75.887,15.668],[75.871,15.714],[75.883,15.738],[75.902,15.749],[75.911,15.744],[75.921,15.726],[75.94,15.693],[75.967,15.679],[76.011,15.662],[75.983,15.667],[76.005,15.715],[76.042,15.718],[76.039,15.769],[75.995,15.781],[75.964,15.795],[75.929,15.791],[75.847,15.839]]]}},{"type":"Feature","properties":{"district":"Gadag"},"geometry":{"type":"Polygon","coordinates":[[[75.289,15.691],[75.274,15.718],[75.294,15.741],[75.3,15.728],[75.318,15.745],[75.306,15.766],[75.325,15.811],[75.341,15.805],[75.375,15.845],[75.414,15.785],[75.458,15.819],[75.452,15.883],[75.479,15.871],[75.502,15.858],[75.512,15.851],[75.556,15.833],[75.553,15.826],[75.577,15.825],[75.617,15.821],[75.631,15.831],[75.657,15.827],[75.676,15.821],[75.683,15.83],[75.691,15.83],[75.742,15.814],[75.78,15.817],[75.798,15.848],[75.847,15.839],[75.961,15.784],[75.984,15.802],[76.032,15.772],[76.041,15.728],[76.023,15.709],[75.984,15.694],[76.014,15.68],[75.968,15.664],[75.944,15.676],[75.916,15.698],[75.911,15.739],[75.903,15.748],[75.897,15.751],[75.887,15.717],[75.871,15.673],[75.886,15.634],[75.898,15.607],[75.86,15.514],[75.824,15.496],[75.81,15.487],[75.82,15.46],[75.826,15.451],[75.866,15.408],[75.903,15.354],[75.889,15.291],[75.9,15.245],[75.924,15.206],[75.948,15.173],[75.928,15.142],[75.885,15.108],[75.909,15.077],[75.884,15.052],[75.846,15.045],[75.808,15.024],[75.779,14.977],[75.72,14.951],[75.701,14.949],[75.69,14.974],[75.669,14.987],[75.632,14.992],[75.611,14.958],[75.565,14.979],[75.543,15.014],[75.495,15.047],[75.449,15.061],[75.417,15.085],[75.403,15.171],[75.399,15.201],[75.433,15.21],[75.44,15.227],[75.417,15.263],[75.402,15.273],[75.406,15.278],[75.45,15.302],[75.445,15.386],[75.475,15.396],[75.495,15.47],[75.472,15.493],[75.482,15.532],[75.534,15.592],[75.503,15.647],[75.468,15.701],[75.448,15.682],[75.363,15.669],[75.336,15.649],[75.294,15.692],[75.289,15.691]]]}},{"type":"Feature","properties":{"district":"Ballari"},"geometry":{"type":"Polygon","coordinates":[[[76.811,15.548],[76.834,15.628],[76.889,15.685],[76.943,15.762],[77.025,15.837],[77.065,15.827],[77.048,15.746],[77.049,15.73],[77.079,15.716],[77.079,15.695],[77.122,15.631],[77.031,15.634],[76.975,15.51],[76.976,15.492],[77.029,15.404],[77.042,15.362],[77.064,15.328],[77.118,15.295],[77.147,15.273],[77.167,15.263],[77.126,15.24],[77.152,15.216],[77.165,15.184],[77.141,15.158],[77.138,15.144],[77.157,15.141],[77.13,15.101],[77.085,15.031],[77.044,15.01],[77.004,15.034],[76.985,15.015],[76.877,15.03],[76.836,15.079],[76.777,15.078],[76.79,15.021],[76.761,14.99],[76.734,14.985],[76.731,15.027],[76.704,15.034],[76.688,15.025],[76.689,14.979],[76.715,14.972],[76.713,14.944],[76.66,14.942],[76.665,14.916],[76.678,14.887],[76.713,14.865],[76.742,14.818],[76.668,14.794],[76.649,14.756],[76.608,14.688],[76.598,14.669],[76.612,14.648],[76.601,14.621],[76.567,14.587],[76.534,14.561],[76.511,14.56],[76.424,14.582],[76.394,14.627],[76.374,14.647],[76.343,14.666],[76.333,14.688],[76.263,14.696],[76.231,14.649],[76.201,14.739],[76.181,14.764],[76.149,14.784],[76.146,14.823],[76.194,14.821],[76.159,14.847],[76.131,14.861],[76.073,14.869],[76.085,14.913],[76.045,14.931],[76.01,14.905],[75.985,14.908],[75.966,14.909],[75.869,14.854],[75.854,14.884],[75.816,14.9],[75.809,14.837],[75.818,14.834],[75.833,14.811],[75.833,14.807],[75.825,14.779],[75.799,14.769],[75.76,14.775],[75.759,14.734],[75.718,14.72],[75.707,14.724],[75.722,14.772],[75.674,14.798],[75.664,14.807],[75.713,14.853],[75.739,14.887],[75.696,14.892],[75.683,14.94],[75.701,14.949],[75.72,14.951],[75.779,14.977],[75.808,15.024],[75.846,15.045],[75.884,15.052],[75.909,15.077],[75.885,15.108],[75.928,15.142],[75.953,15.138],[76.035,15.145],[76.057,15.157],[76.112,15.199],[76.16,15.215],[76.231,15.231],[76.249,15.191],[76.291,15.223],[76.334,15.264],[76.405,15.326],[76.493,15.345],[76.593,15.413],[76.667,15.45],[76.791,15.5],[76.812,15.514],[76.811,15.548]]]}},{"type":"Feature","properties":{"district":"Dharwad"},"geometry":{"type":"Polygon","coordinates":[[[74.739,15.414],[74.744,15.464],[74.749,15.496],[74.787,15.486],[74.798,15.549],[74.831,15.61],[74.902,15.632],[74.967,15.654],[75.028,15.67],[75.049,15.678],[75.057,15.633],[75.108,15.672],[75.203,15.682],[75.249,15.647],[75.278,15.687],[75.294,15.692],[75.336,15.649],[75.363,15.669],[75.448,15.682],[75.468,15.701],[75.503,15.647],[75.534,15.592],[75.482,15.532],[75.472,15.493],[75.495,15.47],[75.475,15.396],[75.445,15.386],[75.45,15.302],[75.406,15.278],[75.402,15.273],[75.417,15.263],[75.44,15.227],[75.433,15.21],[75.399,15.201],[75.403,15.171],[75.417,15.085],[75.369,15.05],[75.333,15.087],[75.35,15.101],[75.337,15.113],[75.307,15.155],[75.287,15.137],[75.253,15.098],[75.188,15.098],[75.159,15.11],[75.133,15.119],[75.141,15.16],[75.132,15.145],[75.105,15.141],[75.077,15.11],[75.058,15.072],[75.013,15.068],[74.94,15.052],[74.917,15.039],[74.889,15.05],[74.892,15.097],[74.859,15.103],[74.833,15.135],[74.878,15.193],[74.91,15.251],[74.904,15.282],[74.874,15.298],[74.854,15.341],[74.819,15.37],[74.821,15.385],[74.765,15.4],[74.767,15.417],[74.739,15.414],[74.739,15.414]]]}},{"type":"Feature","properties":{"district":"Uttara Kannada"},"geometry":{"type":"Polygon","coordinates":[[[74.278,15.523],[74.375,15.481],[74.422,15.464],[74.457,15.403],[74.483,15.396],[74.614,15.359],[74.69,15.398],[74.741,15.411],[74.74,15.415],[74.767,15.416],[74.795,15.379],[74.831,15.373],[74.829,15.341],[74.876,15.317],[74.889,15.307],[74.905,15.279],[74.873,15.216],[74.842,15.154],[74.839,15.128],[74.89,15.097],[74.879,15.074],[74.908,15.051],[74.93,15.046],[74.941,15.066],[75.054,15.083],[75.082,15.075],[75.076,14.974],[75.099,14.956],[75.067,14.919],[75.068,14.839],[75.056,14.815],[75.041,14.774],[75.038,14.728],[75.017,14.71],[75.031,14.665],[75.026,14.611],[75.023,14.567],[75.061,14.544],[75.041,14.5],[74.99,14.473],[74.972,14.521],[74.977,14.549],[74.936,14.519],[74.901,14.529],[74.921,14.459],[74.875,14.448],[74.917,14.432],[74.947,14.399],[74.948,14.395],[74.974,14.338],[74.975,14.329],[74.972,14.319],[74.923,14.316],[74.908,14.287],[74.913,14.278],[74.927,14.276],[74.927,14.275],[74.935,14.243],[74.909,14.228],[74.878,14.216],[74.853,14.211],[74.792,14.227],[74.73,14.264],[74.719,14.214],[74.665,14.184],[74.629,14.144],[74.646,14.114],[74.637,14.095],[74.655,14.039],[74.666,13.987],[74.644,13.958],[74.647,13.94],[74.597,13.932],[74.583,13.926],[74.549,13.948],[74.47,14.188],[74.394,14.419],[74.384,14.439],[74.31,14.521],[74.27,14.627],[74.286,14.646],[74.257,14.708],[74.234,14.748],[74.205,14.737],[74.202,14.72],[74.152,14.747],[74.142,14.779],[74.118,14.786],[74.113,14.805],[74.125,14.805],[74.112,14.85],[74.086,14.901],[74.162,14.912],[74.163,14.958],[74.179,14.957],[74.237,14.967],[74.264,14.979],[74.268,15.002],[74.273,15.098],[74.285,15.149],[74.302,15.225],[74.251,15.259],[74.326,15.283],[74.317,15.329],[74.276,15.392],[74.276,15.449],[74.251,15.492],[74.278,15.523]]]}},{"type":"Feature","properties":{"district":"Haveri"},"geometry":{"type":"Polygon","coordinates":[[[75.417,15.085],[75.449,15.061],[75.495,15.047],[75.543,15.014],[75.565,14.979],[75.611,14.958],[75.632,14.992],[75.669,14.987],[75.69,14.974],[75.701,14.949],[75.683,14.94],[75.696,14.892],[75.739,14.887],[75.713,14.853],[75.664,14.807],[75.674,14.798],[75.722,14.772],[75.707,14.724],[75.718,14.72],[75.759,14.734],[75.764,14.723],[75.74,14.694],[75.74,14.69],[75.798,14.681],[75.81,14.652],[75.819,14.565],[75.797,14.511],[75.716,14.472],[75.662,14.452],[75.637,14.465],[75.643,14.431],[75.633,14.317],[75.603,14.293],[75.536,14.277],[75.534,14.289],[75.501,14.344],[75.477,14.317],[75.359,14.409],[75.382,14.434],[75.356,14.428],[75.346,14.485],[75.268,14.515],[75.297,14.541],[75.243,14.578],[75.225,14.568],[75.207,14.572],[75.182,14.598],[75.205,14.638],[75.165,14.633],[75.1,14.653],[75.051,14.65],[75.032,14.708],[75.015,14.721],[75.047,14.745],[75.07,14.783],[75.092,14.811],[75.074,14.869],[75.103,14.934],[75.084,14.956],[75.069,15.015],[75.077,15.11],[75.105,15.141],[75.132,15.145],[75.141,15.16],[75.133,15.119],[75.159,15.11],[75.188,15.098],[75.253,15.098],[75.287,15.137],[75.307,15.155],[75.337,15.113],[75.35,15.101],[75.333,15.087],[75.369,15.05],[75.417,15.085],[75.417,15.085]]]}},{"type":"Feature","properties":{"district":"Chitradurga"},"geometry":{"type":"Polygon","coordinates":[[[76.511,14.56],[76.534,14.561],[76.567,14.587],[76.601,14.621],[76.612,14.648],[76.598,14.669],[76.608,14.688],[76.649,14.756],[76.668,14.794],[76.742,14.818],[76.713,14.865],[76.678,14.887],[76.665,14.916],[76.66,14.942],[76.713,14.944],[76.715,14.972],[76.689,14.979],[76.688,15.025],[76.704,15.034],[76.731,15.027],[76.734,14.985],[76.767,14.976],[76.828,14.956],[76.864,14.896],[76.857,14.869],[76.842,14.837],[76.837,14.811],[76.783,14.786],[76.775,14.681],[76.782,14.597],[76.831,14.531],[76.868,14.474],[76.975,14.485],[76.945,14.451],[76.916,14.421],[76.885,14.396],[76.904,14.323],[76.957,14.294],[76.94,14.245],[77.006,14.236],[76.999,14.229],[77.023,14.179],[76.948,14.198],[76.895,14.168],[76.913,14.129],[76.947,14.108],[76.928,14.078],[76.91,14.064],[76.873,14.009],[76.823,13.994],[76.85,13.963],[76.816,13.916],[76.749,13.916],[76.723,13.898],[76.769,13.795],[76.749,13.781],[76.724,13.8],[76.685,13.73],[76.673,13.719],[76.621,13.734],[76.577,13.69],[76.53,13.666],[76.5,13.622],[76.455,13.591],[76.413,13.578],[76.383,13.577],[76.353,13.58],[76.333,13.596],[76.273,13.605],[76.263,13.649],[76.22,13.713],[76.17,13.727],[76.13,13.814],[76.098,13.864],[76.055,13.881],[76.041,13.899],[76.028,13.899],[76.045,13.942],[76.072,13.982],[76.043,13.987],[76.054,14.089],[76.033,14.09],[76.046,14.155],[76.061,14.222],[76.135,14.256],[76.117,14.277],[76.106,14.31],[76.157,14.32],[76.136,14.427],[76.173,14.461],[76.219,14.442],[76.261,14.444],[76.383,14.42],[76.424,14.438],[76.46,14.452],[76.485,14.505],[76.533,14.542],[76.51,14.56],[76.511,14.56]]]}},{"type":"Feature","properties":{"district":"Davanagere"},"geometry":{"type":"Polygon","coordinates":[[[75.759,14.734],[75.76,14.775],[75.799,14.769],[75.825,14.779],[75.833,14.807],[75.833,14.811],[75.818,14.834],[75.809,14.837],[75.816,14.9],[75.854,14.884],[75.869,14.854],[75.966,14.909],[75.985,14.908],[76.01,14.905],[76.045,14.931],[76.085,14.913],[76.073,14.869],[76.131,14.861],[76.159,14.847],[76.194,14.821],[76.146,14.823],[76.149,14.784],[76.181,14.764],[76.201,14.739],[76.231,14.649],[76.263,14.696],[76.333,14.688],[76.343,14.666],[76.374,14.647],[76.394,14.627],[76.424,14.582],[76.511,14.56],[76.518,14.555],[76.53,14.538],[76.461,14.506],[76.423,14.45],[76.397,14.435],[76.281,14.404],[76.238,14.451],[76.208,14.457],[76.172,14.448],[76.155,14.387],[76.116,14.323],[76.12,14.295],[76.13,14.28],[76.079,14.245],[76.063,14.16],[76.025,14.113],[76.047,14.098],[76.044,13.989],[76.051,13.979],[76.066,13.942],[76.03,13.902],[76.03,13.899],[76.025,13.868],[76.016,13.872],[75.989,13.849],[75.95,13.834],[75.896,13.806],[75.872,13.851],[75.86,13.91],[75.824,14.019],[75.821,14.065],[75.806,14.098],[75.739,14.101],[75.721,14.084],[75.673,14.065],[75.618,14.077],[75.543,14.078],[75.491,14.105],[75.4,14.118],[75.484,14.176],[75.503,14.218],[75.527,14.203],[75.536,14.277],[75.603,14.293],[75.633,14.317],[75.643,14.431],[75.637,14.465],[75.662,14.452],[75.716,14.472],[75.797,14.511],[75.819,14.565],[75.81,14.652],[75.798,14.681],[75.74,14.69],[75.74,14.694],[75.764,14.723],[75.759,14.734],[75.759,14.734]]]}},{"type":"Feature","properties":{"district":"Shivamogga"},"geometry":{"type":"Polygon","coordinates":[[[74.666,13.987],[74.655,14.039],[74.637,14.095],[74.646,14.114],[74.629,14.144],[74.665,14.184],[74.719,14.214],[74.73,14.264],[74.792,14.227],[74.853,14.211],[74.878,14.216],[74.909,14.228],[74.935,14.243],[74.927,14.275],[74.927,14.276],[74.913,14.278],[74.908,14.287],[74.923,14.316],[74.972,14.319],[74.975,14.329],[74.974,14.338],[74.948,14.395],[74.947,14.399],[74.917,14.432],[74.875,14.448],[74.921,14.459],[74.901,14.529],[74.936,14.519],[74.977,14.549],[74.972,14.521],[74.99,14.473],[75.041,14.5],[75.061,14.544],[75.023,14.567],[75.026,14.611],[75.073,14.655],[75.16,14.617],[75.188,14.623],[75.205,14.598],[75.184,14.586],[75.227,14.584],[75.24,14.555],[75.265,14.58],[75.268,14.528],[75.32,14.514],[75.34,14.436],[75.365,14.442],[75.378,14.408],[75.349,14.388],[75.476,14.344],[75.503,14.308],[75.533,14.277],[75.507,14.219],[75.457,14.206],[75.444,14.164],[75.449,14.096],[75.531,14.098],[75.603,14.057],[75.634,14.08],[75.726,14.076],[75.738,14.087],[75.756,14.11],[75.814,14.106],[75.799,14.033],[75.829,13.972],[75.855,13.873],[75.879,13.81],[75.808,13.795],[75.767,13.797],[75.687,13.767],[75.669,13.764],[75.675,13.723],[75.635,13.702],[75.623,13.706],[75.628,13.733],[75.611,13.761],[75.566,13.741],[75.507,13.766],[75.487,13.768],[75.473,13.75],[75.419,13.706],[75.407,13.666],[75.412,13.642],[75.391,13.624],[75.387,13.615],[75.374,13.626],[75.37,13.597],[75.326,13.593],[75.279,13.565],[75.236,13.598],[75.223,13.603],[75.227,13.568],[75.226,13.528],[75.17,13.508],[75.141,13.461],[75.102,13.489],[75.077,13.514],[75.063,13.529],[75.035,13.567],[75.044,13.58],[75.061,13.603],[75.015,13.635],[75.028,13.667],[75.011,13.691],[74.991,13.71],[74.928,13.769],[74.932,13.79],[74.879,13.867],[74.84,13.897],[74.763,13.916],[74.708,13.927],[74.699,13.951],[74.672,13.975],[74.666,13.987]]]}},{"type":"Feature","properties":{"district":"Udupi"},"geometry":{"type":"Polygon","coordinates":[[[74.583,13.926],[74.597,13.932],[74.647,13.94],[74.644,13.958],[74.666,13.987],[74.675,13.969],[74.691,13.934],[74.712,13.905],[74.82,13.908],[74.865,13.857],[74.908,13.858],[74.933,13.788],[74.999,13.738],[75.021,13.698],[75.012,13.677],[75.013,13.658],[75.023,13.629],[75.061,13.602],[75.037,13.57],[75.049,13.547],[75.06,13.519],[75.08,13.492],[75.116,13.457],[75.154,13.453],[75.14,13.407],[75.127,13.385],[75.112,13.356],[75.079,13.343],[75.14,13.288],[75.206,13.177],[75.115,13.131],[75.098,13.165],[75.084,13.146],[75.037,13.142],[74.994,13.157],[74.954,13.121],[74.941,13.138],[74.936,13.145],[74.928,13.148],[74.912,13.108],[74.86,13.128],[74.81,13.113],[74.798,13.104],[74.778,13.103],[74.717,13.314],[74.696,13.371],[74.696,13.373],[74.67,13.635],[74.61,13.867],[74.583,13.926]]]}},{"type":"Feature","properties":{"district":"Chikkamagaluru"},"geometry":{"type":"Polygon","coordinates":[[[76.03,13.899],[76.043,13.899],[76.077,13.88],[76.115,13.812],[76.149,13.732],[76.174,13.717],[76.222,13.682],[76.286,13.647],[76.3,13.589],[76.341,13.576],[76.364,13.547],[76.346,13.514],[76.312,13.526],[76.29,13.505],[76.231,13.468],[76.196,13.45],[76.193,13.469],[76.137,13.442],[76.09,13.394],[76.056,13.381],[76.027,13.327],[76.036,13.249],[76.015,13.261],[75.903,13.258],[75.877,13.26],[75.857,13.258],[75.816,13.259],[75.779,13.21],[75.743,13.208],[75.73,13.164],[75.735,13.123],[75.727,13.099],[75.74,13.03],[75.71,13.038],[75.695,13.046],[75.656,13.023],[75.596,12.944],[75.559,12.916],[75.556,12.943],[75.533,13.005],[75.486,13.092],[75.47,13.078],[75.455,13.11],[75.434,13.122],[75.407,13.112],[75.389,13.172],[75.347,13.181],[75.317,13.136],[75.285,13.135],[75.252,13.129],[75.207,13.153],[75.167,13.203],[75.112,13.283],[75.09,13.361],[75.128,13.366],[75.147,13.393],[75.155,13.43],[75.141,13.461],[75.17,13.508],[75.226,13.528],[75.227,13.568],[75.223,13.603],[75.236,13.598],[75.279,13.565],[75.326,13.593],[75.37,13.597],[75.374,13.626],[75.387,13.615],[75.391,13.624],[75.412,13.642],[75.407,13.666],[75.419,13.706],[75.473,13.75],[75.487,13.768],[75.507,13.766],[75.566,13.741],[75.611,13.761],[75.628,13.733],[75.623,13.706],[75.635,13.702],[75.675,13.723],[75.669,13.764],[75.687,13.767],[75.767,13.797],[75.808,13.795],[75.879,13.81],[75.952,13.816],[75.97,13.856],[76.012,13.868],[76.019,13.868],[76.03,13.886],[76.03,13.899]]]}},{"type":"Feature","properties":{"district":"Chikkaballapura"},"geometry":{"type":"Polygon","coordinates":[[[77.455,13.682],[77.485,13.715],[77.512,13.697],[77.526,13.694],[77.522,13.744],[77.547,13.753],[77.561,13.723],[77.614,13.752],[77.642,13.747],[77.621,13.769],[77.672,13.76],[77.709,13.741],[77.719,13.8],[77.789,13.83],[77.812,13.849],[77.827,13.875],[77.832,13.896],[77.827,13.945],[77.896,13.941],[77.927,13.905],[77.988,13.956],[77.987,13.903],[77.953,13.827],[78.0,13.873],[78.049,13.896],[78.082,13.861],[78.123,13.841],[78.126,13.787],[78.121,13.716],[78.071,13.699],[78.09,13.659],[78.114,13.657],[78.169,13.654],[78.204,13.628],[78.19,13.59],[78.192,13.573],[78.196,13.568],[78.201,13.564],[78.204,13.528],[78.198,13.513],[78.197,13.447],[78.136,13.405],[78.122,13.375],[78.15,13.358],[78.132,13.352],[78.109,13.323],[78.134,13.288],[78.052,13.294],[78.015,13.283],[77.994,13.304],[77.961,13.284],[77.938,13.268],[77.931,13.245],[77.914,13.237],[77.905,13.251],[77.874,13.244],[77.863,13.241],[77.85,13.22],[77.821,13.253],[77.808,13.243],[77.809,13.262],[77.829,13.291],[77.81,13.31],[77.79,13.351],[77.744,13.354],[77.728,13.352],[77.711,13.366],[77.7,13.337],[77.667,13.348],[77.658,13.398],[77.634,13.376],[77.613,13.387],[77.607,13.407],[77.599,13.415],[77.603,13.441],[77.591,13.419],[77.548,13.436],[77.504,13.446],[77.471,13.469],[77.415,13.492],[77.386,13.514],[77.391,13.533],[77.383,13.542],[77.374,13.59],[77.362,13.622],[77.397,13.674],[77.455,13.682],[77.455,13.682]]]}},{"type":"Feature","properties":{"district":"Hassan"},"geometry":{"type":"Polygon","coordinates":[[[75.559,12.916],[75.596,12.944],[75.656,13.023],[75.695,13.046],[75.71,13.038],[75.74,13.03],[75.727,13.099],[75.735,13.123],[75.73,13.164],[75.743,13.208],[75.779,13.21],[75.816,13.259],[75.857,13.258],[75.877,13.26],[75.903,13.258],[76.015,13.261],[76.036,13.249],[76.027,13.327],[76.056,13.381],[76.09,13.394],[76.137,13.442],[76.193,13.469],[76.196,13.45],[76.231,13.468],[76.29,13.505],[76.312,13.526],[76.346,13.514],[76.364,13.547],[76.427,13.526],[76.397,13.504],[76.415,13.479],[76.42,13.448],[76.395,13.406],[76.381,13.364],[76.347,13.358],[76.348,13.301],[76.356,13.249],[76.38,13.232],[76.413,13.192],[76.455,13.15],[76.472,13.093],[76.515,13.07],[76.521,13.074],[76.604,13.071],[76.62,13.054],[76.605,13.053],[76.602,13.04],[76.613,13.006],[76.634,12.981],[76.612,12.965],[76.606,12.939],[76.596,12.881],[76.578,12.847],[76.518,12.826],[76.5,12.78],[76.49,12.786],[76.455,12.781],[76.446,12.823],[76.425,12.858],[76.409,12.844],[76.383,12.831],[76.368,12.809],[76.334,12.79],[76.35,12.786],[76.357,12.75],[76.362,12.703],[76.353,12.668],[76.342,12.655],[76.328,12.611],[76.306,12.61],[76.3,12.629],[76.28,12.634],[76.246,12.637],[76.206,12.629],[76.192,12.594],[76.152,12.58],[76.133,12.529],[76.115,12.513],[76.091,12.546],[76.046,12.577],[76.014,12.57],[75.989,12.574],[75.975,12.563],[75.94,12.609],[75.936,12.63],[75.94,12.676],[75.965,12.711],[75.933,12.764],[75.969,12.805],[75.92,12.828],[75.88,12.834],[75.864,12.817],[75.878,12.777],[75.86,12.757],[75.855,12.724],[75.887,12.705],[75.887,12.678],[75.878,12.672],[75.834,12.671],[75.808,12.702],[75.713,12.708],[75.667,12.698],[75.634,12.69],[75.651,12.719],[75.656,12.745],[75.64,12.766],[75.614,12.797],[75.602,12.865],[75.564,12.866],[75.563,12.868],[75.559,12.915],[75.559,12.916]]]}},{"type":"Feature","properties":{"district":"Kolar"},"geometry":{"type":"Polygon","coordinates":[[[77.935,13.246],[77.956,13.27],[77.985,13.286],[78.011,13.301],[78.047,13.278],[78.092,13.31],[78.136,13.304],[78.131,13.328],[78.15,13.351],[78.143,13.376],[78.125,13.386],[78.182,13.421],[78.21,13.471],[78.188,13.513],[78.198,13.557],[78.197,13.568],[78.208,13.581],[78.233,13.587],[78.26,13.582],[78.402,13.587],[78.374,13.509],[78.365,13.362],[78.393,13.334],[78.377,13.332],[78.428,13.331],[78.444,13.308],[78.479,13.301],[78.532,13.267],[78.562,13.289],[78.579,13.281],[78.586,13.276],[78.566,13.221],[78.55,13.2],[78.576,13.187],[78.55,13.164],[78.517,13.132],[78.509,13.092],[78.462,13.043],[78.475,12.992],[78.435,12.981],[78.411,12.945],[78.438,12.929],[78.465,12.867],[78.412,12.903],[78.389,12.907],[78.34,12.903],[78.32,12.887],[78.313,12.876],[78.268,12.868],[78.246,12.788],[78.134,12.782],[78.055,12.852],[78.029,12.845],[78.015,12.814],[77.989,12.808],[77.964,12.833],[77.952,12.857],[77.941,12.823],[77.923,12.856],[77.942,12.871],[77.936,12.884],[77.934,12.887],[77.91,12.88],[77.866,12.87],[77.862,12.914],[77.871,12.937],[77.886,13.009],[77.914,13.049],[77.942,13.069],[77.932,13.074],[77.901,13.103],[77.937,13.108],[77.956,13.13],[77.964,13.189],[77.945,13.214],[77.935,13.246],[77.935,13.246]]]}},{"type":"Feature","properties":{"district":"Bengaluru Rural"},"geometry":{"type":"Polygon","coordinates":[[[77.386,13.514],[77.415,13.492],[77.471,13.469],[77.504,13.446],[77.548,13.436],[77.591,13.419],[77.603,13.441],[77.599,13.415],[77.607,13.407],[77.613,13.387],[77.634,13.376],[77.658,13.398],[77.667,13.348],[77.7,13.337],[77.711,13.366],[77.728,13.352],[77.744,13.354],[77.79,13.351],[77.81,13.31],[77.829,13.291],[77.809,13.262],[77.808,13.243],[77.821,13.253],[77.85,13.22],[77.863,13.241],[77.874,13.244],[77.905,13.251],[77.914,13.237],[77.931,13.245],[77.965,13.244],[77.958,13.219],[77.953,13.16],[77.939,13.125],[77.915,13.119],[77.913,13.081],[77.94,13.084],[77.928,13.068],[77.892,13.052],[77.865,12.974],[77.84,12.922],[77.852,12.891],[77.86,12.87],[77.831,12.866],[77.832,12.927],[77.798,12.918],[77.779,12.97],[77.781,13.034],[77.765,13.108],[77.724,13.127],[77.725,13.193],[77.684,13.203],[77.663,13.184],[77.66,13.201],[77.6,13.197],[77.574,13.199],[77.57,13.216],[77.559,13.232],[77.522,13.209],[77.48,13.223],[77.432,13.165],[77.394,13.118],[77.416,13.093],[77.429,13.086],[77.384,13.067],[77.394,13.053],[77.375,13.029],[77.372,12.992],[77.348,12.974],[77.331,12.974],[77.322,13.006],[77.331,13.043],[77.311,13.046],[77.293,13.11],[77.269,13.119],[77.218,13.145],[77.203,13.185],[77.183,13.229],[77.183,13.258],[77.219,13.263],[77.249,13.302],[77.282,13.297],[77.309,13.311],[77.339,13.329],[77.363,13.42],[77.373,13.47],[77.386,13.514]]]}},{"type":"Feature","properties":{"district":"Dakshina Kannada"},"geometry":{"type":"Polygon","coordinates":[[[74.776,13.072],[74.792,13.097],[74.792,13.117],[74.826,13.13],[74.878,13.095],[74.911,13.133],[74.93,13.147],[74.943,13.143],[74.952,13.124],[74.975,13.13],[75.015,13.131],[75.059,13.132],[75.081,13.162],[75.121,13.136],[75.15,13.125],[75.207,13.153],[75.252,13.129],[75.285,13.135],[75.317,13.136],[75.347,13.181],[75.389,13.172],[75.407,13.112],[75.434,13.122],[75.455,13.11],[75.47,13.078],[75.486,13.092],[75.533,13.005],[75.556,12.943],[75.559,12.916],[75.555,12.907],[75.564,12.867],[75.603,12.875],[75.621,12.855],[75.634,12.773],[75.647,12.757],[75.652,12.723],[75.626,12.705],[75.647,12.693],[75.642,12.633],[75.658,12.603],[75.671,12.551],[75.664,12.547],[75.591,12.54],[75.566,12.486],[75.524,12.49],[75.49,12.46],[75.462,12.488],[75.434,12.53],[75.417,12.515],[75.382,12.502],[75.372,12.477],[75.336,12.464],[75.304,12.503],[75.28,12.524],[75.272,12.57],[75.29,12.584],[75.325,12.592],[75.279,12.617],[75.238,12.568],[75.209,12.592],[75.209,12.602],[75.202,12.629],[75.138,12.645],[75.15,12.674],[75.133,12.674],[75.105,12.698],[75.085,12.674],[75.047,12.667],[75.055,12.695],[75.001,12.715],[74.982,12.739],[75.003,12.791],[74.989,12.795],[74.987,12.783],[74.978,12.78],[74.964,12.78],[74.882,12.754],[74.865,12.76],[74.776,13.072],[74.776,13.072]]]}},{"type":"Feature","properties":{"district":"Bengaluru Urban"},"geometry":{"type":"Polygon","coordinates":[[[77.331,12.974],[77.348,12.974],[77.372,12.992],[77.375,13.029],[77.394,13.053],[77.384,13.067],[77.429,13.086],[77.416,13.093],[77.394,13.118],[77.432,13.165],[77.48,13.223],[77.522,13.209],[77.559,13.232],[77.57,13.216],[77.574,13.199],[77.6,13.197],[77.66,13.201],[77.663,13.184],[77.684,13.203],[77.725,13.193],[77.724,13.127],[77.765,13.108],[77.781,13.034],[77.779,12.97],[77.798,12.918],[77.832,12.927],[77.831,12.866],[77.805,12.849],[77.793,12.843],[77.81,12.832],[77.809,12.797],[77.793,12.75],[77.763,12.737],[77.774,12.724],[77.737,12.698],[77.738,12.673],[77.703,12.661],[77.677,12.68],[77.601,12.668],[77.594,12.722],[77.556,12.731],[77.576,12.752],[77.597,12.766],[77.581,12.787],[77.56,12.784],[77.559,12.791],[77.548,12.801],[77.544,12.776],[77.541,12.75],[77.521,12.732],[77.505,12.732],[77.478,12.781],[77.485,12.801],[77.452,12.818],[77.433,12.823],[77.438,12.85],[77.418,12.87],[77.41,12.877],[77.365,12.872],[77.333,12.888],[77.339,12.944],[77.331,12.974]]]}},{"type":"Feature","properties":{"district":"Kodagu"},"geometry":{"type":"Polygon","coordinates":[[[75.667,12.698],[75.713,12.708],[75.808,12.702],[75.834,12.671],[75.878,12.672],[75.887,12.678],[75.887,12.705],[75.855,12.724],[75.86,12.757],[75.878,12.777],[75.864,12.817],[75.88,12.834],[75.92,12.828],[75.969,12.805],[75.933,12.764],[75.965,12.711],[75.94,12.676],[75.936,12.63],[75.94,12.609],[75.975,12.563],[75.989,12.574],[76.014,12.57],[76.012,12.554],[75.993,12.561],[75.983,12.54],[75.975,12.52],[75.971,12.451],[75.964,12.448],[75.928,12.437],[75.909,12.398],[75.922,12.384],[76.001,12.331],[76.014,12.292],[76.062,12.249],[76.133,12.192],[76.171,12.119],[76.183,12.033],[76.151,12.019],[76.114,11.98],[76.003,11.931],[75.937,11.941],[75.847,11.982],[75.823,12.013],[75.794,12.055],[75.803,12.079],[75.715,12.071],[75.702,12.092],[75.662,12.099],[75.636,12.148],[75.593,12.147],[75.553,12.192],[75.54,12.216],[75.414,12.29],[75.43,12.307],[75.411,12.347],[75.379,12.392],[75.366,12.458],[75.422,12.473],[75.416,12.5],[75.429,12.515],[75.472,12.499],[75.465,12.472],[75.493,12.484],[75.529,12.499],[75.556,12.501],[75.615,12.51],[75.668,12.549],[75.664,12.579],[75.654,12.618],[75.667,12.698],[75.667,12.698]]]}},{"type":"Feature","properties":{"district":"Chamarajanagara"},"geometry":{"type":"Polygon","coordinates":[[[76.414,11.759],[76.413,11.788],[76.41,11.811],[76.469,11.819],[76.491,11.861],[76.553,11.859],[76.577,11.924],[76.578,11.988],[76.651,12.008],[76.705,11.985],[76.741,12.009],[76.792,12.011],[76.82,12.027],[76.836,12.0],[76.883,12.016],[76.904,11.999],[76.939,12.026],[76.891,12.058],[76.87,12.063],[76.877,12.115],[76.831,12.132],[76.854,12.159],[76.852,12.179],[76.871,12.141],[76.949,12.098],[76.993,12.176],[77.004,12.16],[77.016,12.134],[77.04,12.128],[77.085,12.191],[77.134,12.226],[77.133,12.229],[77.108,12.241],[77.167,12.31],[77.268,12.314],[77.326,12.307],[77.346,12.282],[77.415,12.286],[77.43,12.287],[77.448,12.25],[77.472,12.242],[77.478,12.236],[77.473,12.207],[77.535,12.2],[77.609,12.206],[77.611,12.206],[77.726,12.182],[77.731,12.18],[77.75,12.139],[77.709,12.036],[77.653,11.955],[77.587,11.939],[77.538,11.933],[77.495,11.943],[77.461,11.9],[77.427,11.761],[77.365,11.79],[77.335,11.771],[77.288,11.801],[77.238,11.795],[77.118,11.721],[77.056,11.77],[77.063,11.79],[77.035,11.77],[77.039,11.794],[76.982,11.812],[76.954,11.792],[76.888,11.734],[76.835,11.655],[76.858,11.614],[76.824,11.608],[76.614,11.608],[76.577,11.615],[76.55,11.674],[76.482,11.693],[76.417,11.672],[76.404,11.708],[76.427,11.726],[76.411,11.743],[76.414,11.759]]]}},{"type":"Feature","properties":{"district":"Tumakuru"},"geometry":{"type":"MultiPolygon","coordinates":[[[[77.081,13.07],[77.081,13.071],[77.082,13.074],[77.083,13.073],[77.083,13.072],[77.083,13.071],[77.081,13.07]]],[[[76.353,13.58],[76.383,13.577],[76.413,13.578],[76.455,13.591],[76.5,13.622],[76.53,13.666],[76.577,13.69],[76.621,13.734],[76.673,13.719],[76.685,13.73],[76.724,13.8],[76.749,13.781],[76.769,13.795],[76.723,13.898],[76.749,13.916],[76.816,13.916],[76.85,13.963],[76.823,13.994],[76.873,14.009],[76.91,14.064],[76.928,14.078],[76.949,14.092],[76.973,14.06],[76.931,14.03],[76.994,13.962],[77.047,13.907],[77.014,13.86],[76.978,13.827],[76.99,13.813],[76.999,13.745],[77.024,13.779],[77.065,13.744],[77.091,13.767],[77.179,13.783],[77.169,13.83],[77.148,13.868],[77.162,13.907],[77.191,13.912],[77.2,13.863],[77.22,13.868],[77.248,13.901],[77.259,13.863],[77.288,13.848],[77.325,13.833],[77.382,13.84],[77.416,13.809],[77.416,13.807],[77.423,13.799],[77.436,13.797],[77.445,13.811],[77.456,13.789],[77.465,13.711],[77.454,13.686],[77.436,13.679],[77.364,13.629],[77.363,13.59],[77.382,13.575],[77.389,13.535],[77.392,13.533],[77.373,13.47],[77.363,13.42],[77.339,13.329],[77.309,13.311],[77.282,13.297],[77.249,13.302],[77.219,13.263],[77.183,13.258],[77.183,13.229],[77.203,13.185],[77.196,13.184],[77.162,13.192],[77.138,13.178],[77.116,13.13],[77.092,13.136],[77.073,13.124],[77.068,13.068],[77.07,13.04],[77.098,12.999],[77.13,12.996],[77.135,13.005],[77.13,12.978],[77.165,12.929],[77.14,12.918],[77.107,12.894],[77.132,12.888],[77.149,12.849],[77.159,12.827],[77.151,12.792],[77.15,12.787],[77.127,12.775],[77.121,12.774],[77.092,12.753],[77.078,12.749],[77.067,12.758],[77.044,12.778],[77.009,12.764],[76.998,12.776],[76.973,12.804],[76.892,12.847],[76.866,12.905],[76.896,12.92],[76.863,12.928],[76.84,12.973],[76.815,13.014],[76.773,13.033],[76.693,13.037],[76.655,13.012],[76.64,13.007],[76.613,13.006],[76.602,13.04],[76.605,13.053],[76.62,13.054],[76.604,13.071],[76.521,13.074],[76.515,13.07],[76.472,13.093],[76.455,13.15],[76.413,13.192],[76.38,13.232],[76.356,13.249],[76.348,13.301],[76.347,13.358],[76.381,13.364],[76.395,13.406],[76.42,13.448],[76.415,13.479],[76.397,13.504],[76.427,13.526],[76.364,13.547],[76.353,13.58]]],[[[77.003,14.198],[77.005,14.232],[77.019,14.239],[77.053,14.245],[77.101,14.217],[77.115,14.225],[77.121,14.263],[77.116,14.282],[77.134,14.329],[77.159,14.342],[77.197,14.321],[77.287,14.34],[77.364,14.276],[77.379,14.227],[77.418,14.209],[77.418,14.218],[77.409,14.26],[77.378,14.303],[77.409,14.337],[77.431,14.313],[77.45,14.281],[77.498,14.279],[77.493,14.231],[77.517,14.186],[77.467,14.172],[77.379,14.136],[77.352,14.13],[77.391,14.127],[77.361,14.063],[77.332,14.031],[77.382,13.976],[77.438,13.975],[77.412,13.946],[77.435,13.915],[77.398,13.907],[77.348,13.916],[77.35,13.958],[77.336,13.995],[77.307,14.032],[77.279,14.032],[77.245,14.012],[77.173,14.001],[77.149,14.002],[77.079,14.043],[77.028,14.062],[77.03,14.088],[77.026,14.125],[77.021,14.189],[77.003,14.198]]]]}},{"type":"Feature","properties":{"district":"Ramanagara"},"geometry":{"type":"Polygon","coordinates":[[[77.203,13.185],[77.218,13.145],[77.269,13.119],[77.293,13.11],[77.311,13.046],[77.331,13.043],[77.322,13.006],[77.331,12.974],[77.343,12.888],[77.335,12.878],[77.379,12.855],[77.43,12.875],[77.427,12.85],[77.419,12.826],[77.436,12.81],[77.48,12.809],[77.469,12.795],[77.474,12.757],[77.514,12.75],[77.534,12.756],[77.552,12.772],[77.548,12.799],[77.55,12.799],[77.563,12.787],[77.565,12.759],[77.592,12.773],[77.595,12.753],[77.569,12.73],[77.567,12.701],[77.615,12.709],[77.599,12.667],[77.597,12.658],[77.603,12.626],[77.591,12.615],[77.581,12.558],[77.587,12.515],[77.584,12.479],[77.626,12.496],[77.634,12.485],[77.616,12.367],[77.551,12.291],[77.518,12.279],[77.479,12.271],[77.448,12.25],[77.43,12.287],[77.415,12.286],[77.346,12.282],[77.326,12.307],[77.33,12.362],[77.286,12.393],[77.27,12.434],[77.236,12.47],[77.226,12.474],[77.224,12.503],[77.168,12.485],[77.126,12.482],[77.114,12.553],[77.129,12.57],[77.122,12.624],[77.097,12.674],[77.074,12.681],[77.079,12.748],[77.08,12.759],[77.097,12.776],[77.124,12.774],[77.147,12.786],[77.149,12.789],[77.144,12.814],[77.149,12.831],[77.131,12.859],[77.119,12.884],[77.133,12.898],[77.158,12.914],[77.157,12.958],[77.145,12.988],[77.125,13.006],[77.105,12.993],[77.118,13.015],[77.077,13.058],[77.081,13.09],[77.083,13.133],[77.096,13.146],[77.119,13.162],[77.148,13.174],[77.168,13.191],[77.203,13.183],[77.203,13.185]],[[77.081,13.07],[77.083,13.071],[77.083,13.072],[77.083,13.073],[77.082,13.074],[77.081,13.071],[77.081,13.07]]]}},{"type":"Feature","properties":{"district":"Mandya"},"geometry":{"type":"MultiPolygon","coordinates":[[[[76.97,12.255],[76.97,12.274],[76.982,12.27],[76.982,12.256],[76.97,12.255]]],[[[76.898,12.357],[76.899,12.374],[76.917,12.38],[76.918,12.371],[76.913,12.359],[76.898,12.357]]],[[[76.342,12.655],[76.353,12.668],[76.362,12.703],[76.357,12.75],[76.35,12.786],[76.334,12.79],[76.368,12.809],[76.383,12.831],[76.409,12.844],[76.425,12.858],[76.446,12.823],[76.455,12.781],[76.49,12.786],[76.5,12.78],[76.518,12.826],[76.578,12.847],[76.596,12.881],[76.606,12.939],[76.612,12.965],[76.634,12.981],[76.64,13.007],[76.655,13.012],[76.693,13.037],[76.773,13.033],[76.815,13.014],[76.84,12.973],[76.863,12.928],[76.896,12.92],[76.866,12.905],[76.892,12.847],[76.973,12.804],[76.998,12.776],[77.009,12.764],[77.044,12.778],[77.067,12.758],[77.078,12.749],[77.081,12.747],[77.097,12.676],[77.1,12.63],[77.108,12.608],[77.128,12.553],[77.132,12.519],[77.147,12.462],[77.213,12.485],[77.238,12.5],[77.235,12.483],[77.269,12.465],[77.285,12.429],[77.313,12.392],[77.325,12.308],[77.303,12.299],[77.225,12.304],[77.17,12.26],[77.106,12.221],[77.079,12.237],[76.995,12.242],[76.972,12.291],[76.993,12.301],[76.987,12.333],[76.977,12.353],[76.957,12.327],[76.932,12.338],[76.939,12.353],[76.922,12.442],[76.9,12.409],[76.854,12.409],[76.833,12.385],[76.803,12.355],[76.764,12.312],[76.743,12.318],[76.731,12.343],[76.7,12.351],[76.683,12.391],[76.647,12.395],[76.622,12.368],[76.566,12.382],[76.565,12.399],[76.452,12.484],[76.423,12.533],[76.411,12.558],[76.396,12.573],[76.363,12.629],[76.342,12.655],[76.342,12.655]]]]}},{"type":"Feature","properties":{"district":"Mysuru"},"geometry":{"type":"Polygon","coordinates":[[[76.019,12.571],[76.052,12.554],[76.086,12.539],[76.114,12.527],[76.151,12.547],[76.196,12.577],[76.215,12.622],[76.219,12.644],[76.255,12.62],[76.28,12.617],[76.31,12.623],[76.326,12.611],[76.324,12.635],[76.343,12.656],[76.377,12.576],[76.391,12.552],[76.428,12.542],[76.452,12.506],[76.567,12.426],[76.555,12.392],[76.566,12.352],[76.643,12.395],[76.652,12.394],[76.682,12.367],[76.719,12.357],[76.731,12.317],[76.754,12.302],[76.766,12.35],[76.815,12.387],[76.832,12.402],[76.877,12.4],[76.905,12.437],[76.938,12.4],[76.924,12.353],[76.922,12.322],[76.956,12.352],[76.977,12.328],[76.998,12.313],[76.977,12.307],[76.991,12.287],[77.036,12.232],[77.078,12.221],[77.108,12.241],[77.133,12.229],[77.134,12.226],[77.085,12.191],[77.04,12.128],[77.016,12.134],[77.004,12.16],[76.993,12.176],[76.949,12.098],[76.871,12.141],[76.852,12.179],[76.854,12.159],[76.831,12.132],[76.877,12.115],[76.87,12.063],[76.891,12.058],[76.939,12.026],[76.904,11.999],[76.883,12.016],[76.836,12.0],[76.82,12.027],[76.792,12.011],[76.741,12.009],[76.705,11.985],[76.651,12.008],[76.578,11.988],[76.577,11.924],[76.553,11.859],[76.491,11.861],[76.469,11.819],[76.41,11.811],[76.413,11.788],[76.414,11.759],[76.346,11.741],[76.308,11.785],[76.245,11.803],[76.21,11.828],[76.19,11.871],[76.12,11.85],[76.112,11.979],[76.15,12.018],[76.152,12.019],[76.189,12.05],[76.144,12.155],[76.102,12.197],[76.025,12.249],[75.995,12.318],[75.961,12.344],[75.911,12.396],[75.91,12.4],[75.929,12.44],[75.971,12.45],[75.958,12.491],[75.994,12.522],[75.999,12.548],[75.992,12.562],[76.019,12.571],[76.019,12.571]],[[76.97,12.255],[76.982,12.256],[76.982,12.27],[76.97,12.274],[76.97,12.255]],[[76.898,12.357],[76.913,12.359],[76.918,12.371],[76.917,12.38],[76.899,12.374],[76.898,12.357]]]}},{"type":"Feature","properties":{"district":"Vijayapura"},"geometry":{"type":"Polygon","coordinates":[[[76.075,17.336],[76.072,17.334],[76.066,17.311],[76.099,17.29],[76.089,17.258],[76.128,17.245],[76.188,17.186],[76.242,17.152],[76.246,17.151],[76.264,17.151],[76.333,17.171],[76.369,17.167],[76.395,17.143],[76.362,17.116],[76.388,17.073],[76.429,17.1],[76.441,16.997],[76.4,16.977],[76.428,16.927],[76.459,16.928],[76.434,16.898],[76.438,16.868],[76.471,16.839],[76.429,16.851],[76.352,16.82],[76.41,16.799],[76.371,16.769],[76.44,16.742],[76.423,16.717],[76.449,16.721],[76.461,16.711],[76.452,16.714],[76.405,16.643],[76.435,16.438],[76.385,16.426],[76.332,16.427],[76.333,16.391],[76.306,16.381],[76.292,16.331],[76.3,16.283],[76.353,16.235],[76.331,16.194],[76.28,16.153],[76.238,16.165],[76.17,16.185],[76.068,16.208],[76.063,16.217],[76.064,16.238],[76.026,16.301],[75.81,16.37],[75.634,16.444],[75.57,16.412],[75.566,16.415],[75.552,16.456],[75.499,16.454],[75.489,16.42],[75.487,16.418],[75.448,16.414],[75.433,16.431],[75.463,16.474],[75.486,16.509],[75.472,16.563],[75.462,16.623],[75.488,16.694],[75.422,16.767],[75.384,16.763],[75.395,16.863],[75.342,16.956],[75.392,16.98],[75.442,16.982],[75.483,16.976],[75.529,16.969],[75.573,17.01],[75.608,16.971],[75.642,16.954],[75.666,16.98],[75.641,17.038],[75.677,17.065],[75.65,17.116],[75.625,17.174],[75.64,17.189],[75.658,17.263],[75.628,17.274],[75.604,17.305],[75.581,17.351],[75.614,17.392],[75.633,17.477],[75.677,17.454],[75.712,17.408],[75.765,17.406],[75.772,17.386],[75.79,17.372],[75.794,17.37],[75.814,17.373],[75.851,17.411],[75.884,17.418],[75.891,17.357],[75.998,17.338],[76.061,17.355],[76.075,17.336],[76.075,17.336]]]}}]}